HAWK-A                  
1 43765U 18099H   26068.67628545  .00008617  00000+0  36104-3 0  9995
2 43765  97.4051 122.2425 0034260 275.5523  84.1807 15.23231043397949
STARLINK-34169          
1 63999U 25101F   26068.20851524  .00033841  00000+0  12346-2 0  9990
2 63999  43.0053   0.5107 0001919 260.2441  99.8194 15.27555344 46983
